CTC2_L_00547024-03
1 10186U 24914OU  26075.70048611  .00000000  00000+0  00000-0 0  9992
2 10186  98.4000 276.0000 0000000   0.0000 228.0000 14.42576008    14
CTC2_L_00547024-04
1 10187U 22142NK  26075.70048611  .00000000  00000+0  00000-0 0  9994
2 10187  98.4000 276.0000 0000000   0.0000 273.0000 14.42576008    15
CTC2_L_00547024-05
1 10188U 25575VX  26075.70048611  .00000000  00000+0  00000-0 0  9998
2 10188  98.4000 276.0000 0000000   0.0000 318.0000 14.42576008    16
CTC2_L_00547024-06
1 10189U 23661VC  26075.70048611  .00000000  00000+0  00000-0 0  9993
2 10189  98.4000 276.0000 0000000   0.0000   3.0000 14.42576008    18
CTC2_L_00547024-07
1 10190U 23055LU  26075.70048611  .00000000  00000+0  00000-0 0  9992
2 10190  98.4000 276.0000 0000000   0.0000  48.0000 14.42576008    19
CTC2_L_00547024-08
1 10191U 26752CK  26075.70048611  .00000000  00000+0  00000-0 0  9990
2 10191  98.4000 276.0000 0000000   0.0000  93.0000 14.42576008    10
CTC2_L_00547025-01
1 10192U 22877BA  26075.70048611  .00000000  00000+0  00000-0 0  9995
2 10192  98.4000 288.0000 0000000   0.0000 144.0000 14.42576008    11
CTC2_L_00547025-02
1 10193U 25518PC  26075.70048611  .00000000  00000+0  00000-0 0  9991
2 10193  98.4000 288.0000 0000000   0.0000 189.0000 14.42576008    11
CTC2_L_00547025-03
1 10194U 22221KR  26075.70048611  .00000000  00000+0  00000-0 0  9990
2 10194  98.4000 288.0000 0000000   0.0000 234.0000 14.42576008    13
CTC2_L_00547025-04
1 10195U 25855ZJ  26075.70048611  .00000000  00000+0  00000-0 0  9997
2 10195  98.4000 288.0000 0000000   0.0000 279.0000 14.42576008    13
CTC2_L_00547025-05
1 10196U 26885UI  26075.70048611  .00000000  00000+0  00000-0 0  9992
2 10196  98.4000 288.0000 0000000   0.0000 324.0000 14.42576008    15
CTC2_L_00547025-06
1 10197U 25930YZ  26075.70048611  .00000000  00000+0  00000-0 0  9993
2 10197  98.4000 288.0000 0000000   0.0000   9.0000 14.42576008    16
CTC2_L_00547025-07
1 10198U 23951BA  26075.70048611  .00000000  00000+0  00000-0 0  9995
2 10198  98.4000 288.0000 0000000   0.0000  54.0000 14.42576008    17
CTC2_L_00547025-08
1 10199U 26852LB  26075.70048611  .00000000  00000+0  00000-0 0  9999
2 10199  98.4000 288.0000 0000000   0.0000  99.0000 14.42576008    17
CTC2_L_00547026-01
1 10200U 26618PC  26075.70048611  .00000000  00000+0  00000-0 0  9992
2 10200  98.4000 300.0000 0000000   0.0000 150.0000 14.42576008    13
CTC2_L_00547026-02
1 10201U 26128PP  26075.70048611  .00000000  00000+0  00000-0 0  9999
2 10201  98.4000 300.0000 0000000   0.0000 195.0000 14.42576008    13
CTC2_L_00547026-03
1 10202U 23309IC  26075.70048611  .00000000  00000+0  00000-0 0  9998
2 10202  98.4000 300.0000 0000000   0.0000 240.0000 14.42576008    15
CTC2_L_00547026-04
1 10203U 23585BG  26075.70048611  .00000000  00000+0  00000-0 0  9995
2 10203  98.4000 300.0000 0000000   0.0000 285.0000 14.42576008    15
CTC2_L_00547026-05
1 10204U 25259JH  26075.70048611  .00000000  00000+0  00000-0 0  9996
2 10204  98.4000 300.0000 0000000   0.0000 330.0000 14.42576008    17
CTC2_L_00547026-06
1 10205U 26497IV  26075.70048611  .00000000  00000+0  00000-0 0  9992
2 10205  98.4000 300.0000 0000000   0.0000  15.0000 14.42576008    18
CTC2_L_00547026-07
1 10206U 25256OG  26075.70048611  .00000000  00000+0  00000-0 0  9995
2 10206  98.4000 300.0000 0000000   0.0000  60.0000 14.42576008    19
CTC2_L_00547026-08
1 10207U 25489RF  26075.70048611  .00000000  00000+0  00000-0 0  9994
2 10207  98.4000 300.0000 0000000   0.0000 105.0000 14.42576008    10
CTC2_L_00547027-01
1 10208U 22900CX  26075.70048611  .00000000  00000+0  00000-0 0  9990
2 10208  98.4000 312.0000 0000000   0.0000 156.0000 14.42576008    10
CTC2_L_00547027-02
1 10209U 25560NK  26075.70048611  .00000000  00000+0  00000-0 0  9996
2 10209  98.4000 312.0000 0000000   0.0000 201.0000 14.42576008    12
CTC2_L_00547027-03
1 10210U 26832RK  26075.70048611  .00000000  00000+0  00000-0 0  9991
2 10210  98.4000 312.0000 0000000   0.0000 246.0000 14.42576008    13
CTC2_L_00547027-04
1 10211U 23624BU  26075.70048611  .00000000  00000+0  00000-0 0  9998
2 10211  98.4000 312.0000 0000000   0.0000 291.0000 14.42576008    14
CTC2_L_00547027-05
1 10212U 25618GA  26075.70048611  .00000000  00000+0  00000-0 0  9994
2 10212  98.4000 312.0000 0000000   0.0000 336.0000 14.42576008    15
CTC2_L_00547027-06
1 10213U 26675II  26075.70048611  .00000000  00000+0  00000-0 0  9999
2 10213  98.4000 312.0000 0000000   0.0000  21.0000 14.42576008    17
CTC2_L_00547027-07
1 10214U 25984NM  26075.70048611  .00000000  00000+0  00000-0 0  9992
2 10214  98.4000 312.0000 0000000   0.0000  66.0000 14.42576008    17
CTC2_L_00547027-08
1 10215U 26435YK  26075.70048611  .00000000  00000+0  00000-0 0  9995
2 10215  98.4000 312.0000 0000000   0.0000 111.0000 14.42576008    19
CTC2_L_00547028-01
1 10216U 23678FO  26075.70048611  .00000000  00000+0  00000-0 0  9992
2 10216  98.4000 324.0000 0000000   0.0000 162.0000 14.42576008    19
CTC2_L_00547028-02
1 10217U 24369SC  26075.70048611  .00000000  00000+0  00000-0 0  9991
2 10217  98.4000 324.0000 0000000   0.0000 207.0000 14.42576008    10
CTC2_L_00547028-03
1 10218U 24275RU  26075.70048611  .00000000  00000+0  00000-0 0  9998
2 10218  98.4000 324.0000 0000000   0.0000 252.0000 14.42576008    11
CTC2_L_00547028-04
1 10219U 24732FU  26075.70048611  .00000000  00000+0  00000-0 0  9997
2 10219  98.4000 324.0000 0000000   0.0000 297.0000 14.42576008    11
CTC2_L_00547028-05
1 10220U 22462MI  26075.70048611  .00000000  00000+0  00000-0 0  9997
2 10220  98.4000 324.0000 0000000   0.0000 342.0000 14.42576008    14
CTC2_L_00547028-06
1 10221U 25492IK  26075.70048611  .00000000  00000+0  00000-0 0  9994
2 10221  98.4000 324.0000 0000000   0.0000  27.0000 14.42576008    15
CTC2_L_00547028-07
1 10222U 26181K   26075.70048611  .00000000  00000+0  00000-0 0  9991
2 10222  98.4000 324.0000 0000000   0.0000  72.0000 14.42576008    16
CTC2_L_00547028-08
1 10223U 25359AI  26075.70048611  .00000000  00000+0  00000-0 0  9998
2 10223  98.4000 324.0000 0000000   0.0000 117.0000 14.42576008    17
CTC2_L_00547029-01
1 10224U 25679BJ  26075.70048611  .00000000  00000+0  00000-0 0  9994
2 10224  98.4000 336.0000 0000000   0.0000 168.0000 14.42576008    17
CTC2_L_00547029-02
1 10225U 26866ME  26075.70048611  .00000000  00000+0  00000-0 0  9994
2 10225  98.4000 336.0000 0000000   0.0000 213.0000 14.42576008    19
CTC2_L_00547029-03
1 10226U 25824UK  26075.70048611  .00000000  00000+0  00000-0 0  9998
2 10226  98.4000 336.0000 0000000   0.0000 258.0000 14.42576008    19
CTC2_L_00547029-04
1 10227U 26129RQ  26075.70048611  .00000000  00000+0  00000-0 0  9998
2 10227  98.4000 336.0000 0000000   0.0000 303.0000 14.42576008    11
CTC2_L_00547029-05
1 10228U 26935KD  26075.70048611  .00000000  00000+0  00000-0 0  9994
2 10228  98.4000 336.0000 0000000   0.0000 348.0000 14.42576008    11
CTC2_L_00547029-06
1 10229U 24042SA  26075.70048611  .00000000  00000+0  00000-0 0  9992
2 10229  98.4000 336.0000 0000000   0.0000  33.0000 14.42576008    13
CTC2_L_00547029-07
1 10230U 23323KJ  26075.70048611  .00000000  00000+0  00000-0 0  9995
2 10230  98.4000 336.0000 0000000   0.0000  78.0000 14.42576008    14
CTC2_L_00547029-08
1 10231U 26557KD  26075.70048611  .00000000  00000+0  00000-0 0  9998
2 10231  98.4000 336.0000 0000000   0.0000 123.0000 14.42576008    16
CTC2_L_00547030-01
1 10232U 26325PP  26075.70048611  .00000000  00000+0  00000-0 0  9992
2 10232  98.4000 348.0000 0000000   0.0000 174.0000 14.42576008    16
CTC2_L_00547030-02
1 10233U 22533NU  26075.70048611  .00000000  00000+0  00000-0 0  9990
2 10233  98.4000 348.0000 0000000   0.0000 219.0000 14.42576008    17
CTC2_L_00547030-03
1 10234U 23361MN  26075.70048611  .00000000  00000+0  00000-0 0  9991
2 10234  98.4000 348.0000 0000000   0.0000 264.0000 14.42576008    18
CTC2_L_00547030-04
1 10235U 25131OI  26075.70048611  .00000000  00000+0  00000-0 0  9999
2 10235  98.4000 348.0000 0000000   0.0000 309.0000 14.42576008    19
CTC2_L_00547030-05
1 10236U 25207FX  26075.70048611  .00000000  00000+0  00000-0 0  9994
2 10236  98.4000 348.0000 0000000   0.0000 354.0000 14.42576008    10
CTC2_L_00547030-06
1 10237U 24874SK  26075.70048611  .00000000  00000+0  00000-0 0  9994
2 10237  98.4000 348.0000 0000000   0.0000  39.0000 14.42576008    11
CTC2_L_00547030-07
1 10238U 22233BT  26075.70048611  .00000000  00000+0  00000-0 0  9992
2 10238  98.4000 348.0000 0000000   0.0000  84.0000 14.42576008    12
CTC2_L_00547030-08
1 10239U 23582JC  26075.70048611  .00000000  00000+0  00000-0 0  9991
2 10239  98.4000 348.0000 0000000   0.0000 129.0000 14.42576008    13
